{"type": "FeatureCollection", "note": "Road network for the Lokoja study area, from OpenStreetMap (Overpass). Base for safe/danger route checkpoints.", "features": [{"type": "Feature", "properties": {"name": "Unnamed road", "highway": "trunk", "danger": []}, "geometry": {"type": "LineString", "coordinates": [[6.7465342, 7.8423299], [6.7464524, 7.8421174], [6.7462958, 7.8417448], [6.7460822, 7.8412445], [6.7460474, 7.8411143], [6.7460313, 7.8410426], [6.7460098, 7.8408712], [6.7460138, 7.8408021], [6.7460212, 7.8407297], [6.746038, 7.8406586], [6.7460675, 7.8405948], [6.7461569, 7.8404605], [6.7462461, 7.8403559], [6.746487, 7.840134], [6.7468419, 7.8398311], [6.7471846, 7.839516], [6.7475813, 7.839098], [6.7478951, 7.8387393], [6.7480327, 7.8385431], [6.7483171, 7.8380687], [6.7484023, 7.837939], [6.7487832, 7.8373504], [6.7491453, 7.8367486], [6.7492301, 7.8365693], [6.7493385, 7.8363221], [6.7494846, 7.8359196], [6.749553, 7.8356964], [6.7495973, 7.8354665], [6.7496295, 7.8350461], [6.7496623, 7.8346744], [6.7496764, 7.834411], [6.7497019, 7.8338775], [6.7497167, 7.8336823], [6.7497655, 7.8331994], [6.7497971, 7.8327894], [6.7498226, 7.832541], [6.7498655, 7.8322859], [6.7499057, 7.8321371], [6.7499675, 7.831973], [6.7500157, 7.8318116], [6.7500693, 7.8316256], [6.7501779, 7.8312861], [6.7501933, 7.8311272], [6.7501904, 7.8309725], [6.7501677, 7.8308227], [6.750013, 7.8302664], [6.7499343, 7.8299142], [6.7498635, 7.8295789], [6.7497236, 7.8288791], [6.7496161, 7.8283413], [6.7495201, 7.8279285], [6.7492945, 7.8269249], [6.7490194, 7.8257077], [6.7489884, 7.8255897], [6.7489159, 7.8251327], [6.7488047, 7.8242], [6.7487511, 7.8236675], [6.7487309, 7.8234666], [6.7487148, 7.8231291], [6.7487165, 7.822796]]}}, {"type": "Feature", "properties": {"name": "Unnamed road", "highway": "trunk", "danger": ["july15"]}, "geometry": {"type": "LineString", "coordinates": [[6.7462346, 7.8103483], [6.7463122, 7.810151], [6.746339, 7.8100593], [6.7463324, 7.8099782], [6.7463259, 7.8099222], [6.7462921, 7.8096142], [6.7462492, 7.809201], [6.7462264, 7.8090003], [6.7461902, 7.8088037], [6.7461473, 7.808594], [6.7461124, 7.8084323], [6.7460567, 7.8081207], [6.7459407, 7.8076624], [6.7458294, 7.8073063], [6.7457503, 7.8070791], [6.7457121, 7.8069542]]}}, {"type": "Feature", "properties": {"name": "Kunama Road", "highway": "secondary", "danger": ["july15"]}, "geometry": {"type": "LineString", "coordinates": [[6.7439226, 7.7988067], [6.7438573, 7.7988046], [6.7436384, 7.7988193], [6.7424029, 7.798905], [6.7413956, 7.7989558], [6.7409646, 7.7989794], [6.7394264, 7.799083], [6.7390837, 7.7991103], [6.7389697, 7.7991395], [6.73868, 7.7991933], [6.7376581, 7.7993886], [6.736824, 7.7995441], [6.7358972, 7.7996942], [6.7354935, 7.7997447], [6.7352468, 7.7998045], [6.7350148, 7.7998776], [6.7345159, 7.8000769], [6.7339674, 7.8002749], [6.7335691, 7.8004184], [6.7334135, 7.8004596], [6.7332485, 7.8004821], [6.7330608, 7.8004848], [6.7327993, 7.8004702], [6.7322803, 7.800431], [6.7322447, 7.800425], [6.7322139, 7.8004191]]}}, {"type": "Feature", "properties": {"name": "Taiwo Road", "highway": "primary", "danger": []}, "geometry": {"type": "LineString", "coordinates": [[6.7383439, 7.8027402], [6.7383572, 7.8029081], [6.7383206, 7.8031774], [6.7383092, 7.8032724], [6.7382856, 7.8033786], [6.7381891, 7.8036112], [6.7380738, 7.8038397], [6.7378311, 7.8042716], [6.7377385, 7.8045147], [6.7376916, 7.8047672], [6.7376807, 7.8050649], [6.737676, 7.8052445], [6.7376702, 7.8054448], [6.7376916, 7.8056693], [6.7377117, 7.8058686], [6.737756, 7.8060693], [6.7379089, 7.8065941], [6.7381255, 7.8070968], [6.7383488, 7.8075906], [6.7384802, 7.8078364], [6.7386304, 7.8080809], [6.7390515, 7.8085931], [6.7394937, 7.8090752], [6.7396458, 7.8092104], [6.7396845, 7.8092448], [6.7398803, 7.8093923], [6.7403879, 7.8097251], [6.7408419, 7.8099968], [6.7410779, 7.8101284], [6.7413517, 7.810242], [6.7415392, 7.810321], [6.7417699, 7.8104047], [6.7420375, 7.8104751], [6.7422849, 7.8105243], [6.7424002, 7.8105409], [6.742647, 7.8105828], [6.7430952, 7.81064], [6.7432589, 7.8106598], [6.7434302, 7.8106651], [6.7437521, 7.8106612], [6.743914, 7.8106441], [6.7452649, 7.8105014], [6.7454473, 7.8105044], [6.7455731, 7.8105069], [6.7461772, 7.8104702]]}}, {"type": "Feature", "properties": {"name": "Unnamed road", "highway": "primary", "danger": []}, "geometry": {"type": "LineString", "coordinates": [[6.7144984, 7.7930481], [6.7138596, 7.7932259], [6.7136976, 7.7932605], [6.713606, 7.7932801], [6.7133479, 7.7933404], [6.7130743, 7.7934028], [6.7122656, 7.7935901], [6.7117529, 7.7937082], [6.7115213, 7.7937615], [6.7109607, 7.7939794], [6.7107864, 7.7940738], [6.7106442, 7.7941961], [6.7104739, 7.7943795], [6.7101995, 7.7947845], [6.7097106, 7.7955244], [6.7093205, 7.7959779], [6.7091912, 7.7961152], [6.7087586, 7.7965744], [6.7084526, 7.7968945], [6.7077927, 7.7975548], [6.7077549, 7.7975914], [6.7071386, 7.7981436], [6.7066464, 7.7985754], [6.7063217, 7.7988133], [6.7061971, 7.798909], [6.7054756, 7.7993727], [6.7048271, 7.7997138], [6.704738, 7.7997607], [6.7041394, 7.8000749], [6.703634, 7.8003473], [6.7025627, 7.8008555], [6.7012364, 7.8015306], [6.7009118, 7.8016886], [6.6999841, 7.8021476], [6.6998456, 7.8022161], [6.6989806, 7.8026718], [6.6983377, 7.8030151], [6.6978112, 7.8032963], [6.6973606, 7.8036006], [6.6967479, 7.8040115], [6.6964419, 7.8042171], [6.6956816, 7.8047751], [6.6951612, 7.8051326], [6.6941288, 7.805815]]}}, {"type": "Feature", "properties": {"name": "Marine Road", "highway": "tertiary", "danger": ["july15"]}, "geometry": {"type": "LineString", "coordinates": [[6.7442655, 7.8020149], [6.7443703, 7.8019995], [6.7445017, 7.8019809], [6.7446948, 7.8019357], [6.7450234, 7.8018562], [6.7453972, 7.8016966], [6.7458068, 7.8015797], [6.7463344, 7.8014188], [6.7468208, 7.801203], [6.7469694, 7.8011093], [6.7472477, 7.8009336], [6.7477699, 7.8005725], [6.7479698, 7.8004303]]}}, {"type": "Feature", "properties": {"name": "Unnamed road", "highway": "tertiary", "danger": ["july15"]}, "geometry": {"type": "LineString", "coordinates": [[6.7494986, 7.810052], [6.749496, 7.8092129], [6.7494922, 7.8090532], [6.7494745, 7.8082935], [6.7494633, 7.8081418], [6.7494034, 7.8073289], [6.7492948, 7.8066619], [6.7491473, 7.8058261], [6.7488871, 7.8041639], [6.7486752, 7.8027662], [6.7485867, 7.8022732], [6.7484808, 7.8017723], [6.7482487, 7.8011292], [6.7479698, 7.8004303], [6.7479108, 7.8002948], [6.7478169, 7.8001593], [6.7477378, 7.8000729], [6.7476493, 7.8000144], [6.7475728, 7.7999719], [6.7474964, 7.7999374], [6.7473797, 7.7999039], [6.7460668, 7.7997726], [6.7451722, 7.799669], [6.7446236, 7.7996495], [6.7442522, 7.7996092], [6.7440402, 7.7996071]]}}, {"type": "Feature", "properties": {"name": "Unnamed road", "highway": "trunk", "danger": []}, "geometry": {"type": "LineString", "coordinates": [[6.7462079, 7.8105592], [6.7461855, 7.8105171], [6.7461772, 7.8104702], [6.7461834, 7.8104244], [6.7462032, 7.8103825], [6.7462346, 7.8103483], [6.7462771, 7.8103242], [6.7463251, 7.8103144], [6.7463737, 7.81032], [6.7464181, 7.8103403], [6.7464539, 7.8103734], [6.7464775, 7.8104159], [6.7464865, 7.8104637], [6.7464818, 7.8105051], [6.746466, 7.8105438], [6.7464403, 7.8105768], [6.7464065, 7.8106017], [6.7463652, 7.8106172], [6.7463211, 7.8106204], [6.7462779, 7.8106112], [6.7462391, 7.8105902], [6.7462079, 7.8105592]]}}, {"type": "Feature", "properties": {"name": "Unnamed road", "highway": "trunk", "danger": []}, "geometry": {"type": "LineString", "coordinates": [[6.7495148, 7.8101629], [6.7495469, 7.8102732]]}}, {"type": "Feature", "properties": {"name": "Unnamed road", "highway": "trunk", "danger": []}, "geometry": {"type": "LineString", "coordinates": [[6.7495469, 7.8102732], [6.7494176, 7.8102647]]}}, {"type": "Feature", "properties": {"name": "Unnamed road", "highway": "trunk", "danger": []}, "geometry": {"type": "LineString", "coordinates": [[6.7494176, 7.8102647], [6.7493807, 7.8101629]]}}, {"type": "Feature", "properties": {"name": "Unnamed road", "highway": "trunk", "danger": []}, "geometry": {"type": "LineString", "coordinates": [[6.7493807, 7.8101629], [6.7495148, 7.8101629]]}}, {"type": "Feature", "properties": {"name": "Chief Olusegun Obasanjo way", "highway": "trunk", "danger": []}, "geometry": {"type": "LineString", "coordinates": [[6.7464865, 7.8104637], [6.7465938, 7.8104937], [6.7469734, 7.8104552], [6.7473757, 7.8103968], [6.7477874, 7.8103436], [6.7480362, 7.8103131], [6.7484133, 7.8102777], [6.7491472, 7.8101941], [6.7493807, 7.8101629]]}}, {"type": "Feature", "properties": {"name": "Unnamed road", "highway": "trunk", "danger": ["july15"]}, "geometry": {"type": "LineString", "coordinates": [[6.7457724, 7.806907], [6.7458167, 7.8070299], [6.7458985, 7.8072903], [6.7459862, 7.8075855], [6.7460004, 7.8076464], [6.7460909, 7.8080211], [6.7461714, 7.8083905], [6.7462101, 7.8085741], [6.7462572, 7.8087612], [6.7462935, 7.8089804], [6.7463176, 7.8092049], [6.7463565, 7.8095326], [6.7463565, 7.8096089], [6.7464022, 7.8100206], [6.7464168, 7.8101231], [6.7464262, 7.810232], [6.7464775, 7.8104159]]}}, {"type": "Feature", "properties": {"name": "Taiwo Road", "highway": "primary", "danger": []}, "geometry": {"type": "LineString", "coordinates": [[6.7462079, 7.8105592], [6.7456324, 7.8105678], [6.745453, 7.8105588], [6.7452827, 7.8105492], [6.7446962, 7.8106113], [6.7444948, 7.8106398], [6.7437956, 7.8107204], [6.7435643, 7.8107197], [6.7433216, 7.8107143], [6.7432062, 7.8106971], [6.743103, 7.8106817], [6.7427006, 7.8106329], [6.7424887, 7.810602], [6.7423736, 7.8105847], [6.7420502, 7.8105247], [6.7417411, 7.8104446], [6.7413287, 7.8102957], [6.7411175, 7.8101975], [6.7408063, 7.810036], [6.7406464, 7.809939], [6.7404865, 7.809842], [6.7400895, 7.8095969], [6.739718, 7.8093518], [6.7395544, 7.8092235], [6.7395248, 7.8091956], [6.7394042, 7.8090794], [6.7392185, 7.8088847], [6.7390307, 7.8086589], [6.7387974, 7.8083762], [6.7387719, 7.8083453], [6.7386042, 7.808136], [6.7383965, 7.8077998], [6.7383773, 7.8077668], [6.7382602, 7.8075448], [6.7380711, 7.8071448], [6.738039, 7.8070695], [6.7379526, 7.806843], [6.7379008, 7.806727], [6.7378103, 7.8064626], [6.7377312, 7.8062114], [6.7376802, 7.8060261], [6.7376366, 7.8057544], [6.7376098, 7.8055298], [6.7376051, 7.8052561], [6.7376071, 7.8049811], [6.7376192, 7.8046901], [6.7376862, 7.8043965], [6.7378485, 7.804047], [6.738039, 7.8037202], [6.7381422, 7.8035395], [6.7381757, 7.8034385], [6.7381972, 7.8033362], [6.7382226, 7.8032245], [6.7382267, 7.8030944], [6.7382267, 7.8029721], [6.7382166, 7.8028209], [6.7381979, 7.8027336]]}}, {"type": "Feature", "properties": {"name": "Unnamed road", "highway": "trunk", "danger": ["july15"]}, "geometry": {"type": "LineString", "coordinates": [[6.7492834, 7.8164505], [6.7492117, 7.8170785], [6.7492186, 7.8177077], [6.7492327, 7.8183674], [6.7492259, 7.8188045], [6.7491809, 7.8193894], [6.7491795, 7.8200799], [6.7491863, 7.8203444], [6.7491513, 7.820642], [6.749087, 7.8209395], [6.7490092, 7.8212664], [6.7488521, 7.8219139], [6.7488013, 7.8221951], [6.7488067, 7.8225166], [6.7487973, 7.8227585], [6.7487993, 7.8230175], [6.7488087, 7.8234207], [6.7488442, 7.8237615], [6.7488798, 7.8241648], [6.7489354, 7.8246418], [6.749032, 7.8253878], [6.7491017, 7.8257132], [6.7492532, 7.8264174], [6.7493727, 7.8269542], [6.7495335, 7.8276624], [6.7497146, 7.8284369], [6.7498688, 7.8291424], [6.749972, 7.8296098], [6.7500096, 7.8297801], [6.750229, 7.8307323], [6.7502666, 7.8309084], [6.750281, 7.8311588], [6.7502689, 7.8312875], [6.7502357, 7.8314292], [6.7501008, 7.831842], [6.7500138, 7.8321348], [6.7499184, 7.8325035], [6.7498505, 7.8330727], [6.7497786, 7.8339974], [6.7497454, 7.8348137], [6.749702, 7.8354084], [6.7496574, 7.8356868], [6.7495559, 7.8359908], [6.7493974, 7.8363842], [6.7493323, 7.8365367], [6.7492111, 7.8368032], [6.74909, 7.8370188], [6.7488617, 7.837393], [6.7486214, 7.8377619], [6.7483935, 7.838111], [6.7481597, 7.8384778], [6.7480663, 7.8386268], [6.7479814, 7.8387564], [6.7478844, 7.838886], [6.7477706, 7.8390156], [6.7476174, 7.8391935], [6.7474346, 7.8393774], [6.7472488, 7.8395674], [6.7470441, 7.8397531], [6.7468524, 7.8399124], [6.7467642, 7.8399899], [6.7466122, 7.8401135], [6.7463349, 7.8403613], [6.7461937, 7.8405432], [6.7461397, 7.8406626], [6.7460829, 7.8407941], [6.7460816, 7.8408951], [6.7460963, 7.8409934], [6.7461111, 7.8410818], [6.7461372, 7.8411668], [6.7462237, 7.8413828], [6.7463417, 7.8416709], [6.7464039, 7.8417956], [6.7465067, 7.8420057], [6.7465498, 7.8420911], [6.746559, 7.8421094], [6.7466093, 7.8422336], [6.7466489, 7.8423406]]}}, {"type": "Feature", "properties": {"name": "Unnamed road", "highway": "trunk", "danger": ["july15"]}, "geometry": {"type": "LineString", "coordinates": [[6.7487165, 7.822796], [6.7487262, 7.8225405], [6.7487396, 7.8221832], [6.748804, 7.8219281], [6.7488737, 7.8216464], [6.7489609, 7.8212664], [6.7490387, 7.8209408], [6.7490551, 7.8208426], [6.749087, 7.8206512], [6.749103, 7.8205324], [6.7491264, 7.820358], [6.7491138, 7.8198368], [6.7491142, 7.8197983], [6.7491192, 7.8193505], [6.7491581, 7.8188696], [6.7491735, 7.8183899], [6.7491621, 7.8174193], [6.7491722, 7.8170468], [6.7492298, 7.8164602]]}}, {"type": "Feature", "properties": {"name": "Ahmadu Bello way", "highway": "trunk", "danger": []}, "geometry": {"type": "LineString", "coordinates": [[6.7495469, 7.8102732], [6.7494866, 7.8109362], [6.7494629, 7.8115952], [6.7494544, 7.8118304], [6.7494021, 7.8133477], [6.7493552, 7.8149116], [6.7493277, 7.8157028], [6.7492834, 7.8164505]]}}, {"type": "Feature", "properties": {"name": "Ahmadu Bello way", "highway": "trunk", "danger": []}, "geometry": {"type": "LineString", "coordinates": [[6.7492298, 7.8164602], [6.7492328, 7.816361], [6.7492544, 7.815649], [6.7493244, 7.8133437], [6.7493545, 7.8115914], [6.7494176, 7.8102647]]}}, {"type": "Feature", "properties": {"name": "Chief Olusegun Obasanjo way", "highway": "trunk", "danger": []}, "geometry": {"type": "LineString", "coordinates": [[6.7494176, 7.8102647], [6.7490117, 7.8102972], [6.7486162, 7.810329], [6.7481992, 7.8103715], [6.7478934, 7.8103954], [6.7470954, 7.810495], [6.7467347, 7.8105363], [6.7465442, 7.8105668], [6.7464065, 7.8106017]]}}, {"type": "Feature", "properties": {"name": "Unnamed road", "highway": "trunk", "danger": []}, "geometry": {"type": "LineString", "coordinates": [[6.7297723, 7.7856417], [6.7297402, 7.7853959], [6.7297321, 7.7851687], [6.7297295, 7.7849454], [6.7297724, 7.7845229], [6.7298689, 7.7840286], [6.729897, 7.7839476], [6.7299534, 7.7837841], [6.730054, 7.7835463], [6.7301626, 7.7833177], [6.7303745, 7.7829616], [6.7306079, 7.782664], [6.7308721, 7.7823996], [6.7310263, 7.7822866], [6.7311886, 7.782183], [6.7316138, 7.7819677], [6.7321274, 7.7817591], [6.732198, 7.7817346], [6.7331211, 7.7814149], [6.7338896, 7.7811452], [6.7346433, 7.7808396], [6.7359763, 7.7802735], [6.7363963, 7.7801007], [6.7371002, 7.7798111], [6.7381972, 7.7793673], [6.7384909, 7.7792291], [6.7387471, 7.779083], [6.7389429, 7.7789514], [6.7392151, 7.7787468], [6.7395169, 7.7784784], [6.739891, 7.7781077], [6.7401659, 7.7777197], [6.7403752, 7.7773423], [6.7405723, 7.7768932], [6.7406082, 7.7767872], [6.7406629, 7.7766255], [6.7407594, 7.7764874], [6.7408535, 7.7760879], [6.7409065, 7.7753329], [6.7409119, 7.7750435], [6.7409161, 7.7748195], [6.7408847, 7.7743618], [6.7408703, 7.774092], [6.7408786, 7.7729098], [6.7408546, 7.7726822], [6.7408282, 7.7720391], [6.7408049, 7.7708279], [6.7407743, 7.7696064], [6.740757, 7.768933], [6.7407567, 7.7686019], [6.7407329, 7.7673752], [6.7407352, 7.7667161], [6.7407343, 7.766439], [6.7407723, 7.7654033], [6.7408232, 7.7647387], [6.7409128, 7.7639675], [6.7409542, 7.7635936], [6.7411319, 7.7625122], [6.7412778, 7.7618918], [6.741547, 7.7608927], [6.7418649, 7.7597786], [6.7419765, 7.7593942], [6.7420102, 7.7592624], [6.7420685, 7.7590206], [6.7425116, 7.7575307], [6.7427432, 7.7567005], [6.7429929, 7.7558479], [6.7430882, 7.7554872], [6.7432182, 7.7549712], [6.7433341, 7.7543507], [6.7433977, 7.753902], [6.7434756, 7.7534468], [6.7435664, 7.7523689], [6.7436051, 7.7516834], [6.7436462, 7.7512191], [6.7436443, 7.7510559], [6.7436995, 7.7500106], [6.7437518, 7.749013], [6.7438184, 7.7482758], [6.7438872, 7.7471593], [6.743898, 7.7469252], [6.743943, 7.7464477], [6.7440004, 7.7457313], [6.744124, 7.7450473], [6.7444133, 7.7438364], [6.7444749, 7.743648], [6.7447456, 7.7429082], [6.7450919, 7.7420047], [6.7454005, 7.7413557], [6.745488, 7.7411258], [6.7458871, 7.7400767], [6.7460327, 7.7397438], [6.7461191, 7.7395464], [6.7461664, 7.7394229], [6.7462371, 7.7392156]]}}, {"type": "Feature", "properties": {"name": "Plaza Hotel Road", "highway": "primary", "danger": []}, "geometry": {"type": "LineString", "coordinates": [[6.7321187, 7.8035596], [6.7325646, 7.8035634], [6.7330822, 7.8034983], [6.7335208, 7.8034093], [6.7341571, 7.8032798], [6.7347539, 7.8032119], [6.7352575, 7.8031003], [6.7356378, 7.8030126], [6.7359508, 7.8029282], [6.7364866, 7.8027837], [6.736549, 7.8027669], [6.7368124, 7.8027083], [6.7374824, 7.8026572], [6.7378022, 7.8026313], [6.7381662, 7.8025982]]}}, {"type": "Feature", "properties": {"name": "Plaza Hotel Road", "highway": "primary", "danger": []}, "geometry": {"type": "LineString", "coordinates": [[6.7381788, 7.8027146], [6.7379645, 7.8027097], [6.7378062, 7.8027097], [6.7376259, 7.802715], [6.7368881, 7.8027596], [6.7367173, 7.8028094], [6.7363344, 7.8028778], [6.7358999, 7.8029788], [6.7351756, 7.8031919], [6.7347794, 7.8032777], [6.7343456, 7.8033123], [6.7336549, 7.8034637], [6.7333719, 7.8035248], [6.7333394, 7.8035305], [6.7328824, 7.8036099], [6.7325543, 7.8036383], [6.732468, 7.8036458], [6.7320978, 7.8036557]]}}, {"type": "Feature", "properties": {"name": "Unnamed road", "highway": "tertiary", "danger": []}, "geometry": {"type": "LineString", "coordinates": [[6.7384197, 7.8022112], [6.7383615, 7.8025589]]}}, {"type": "Feature", "properties": {"name": "Unnamed road", "highway": "tertiary", "danger": []}, "geometry": {"type": "LineString", "coordinates": [[6.7382046, 7.802551], [6.7384197, 7.8022112]]}}, {"type": "Feature", "properties": {"name": "Unnamed road", "highway": "primary", "danger": []}, "geometry": {"type": "LineString", "coordinates": [[6.7382264, 7.8027527], [6.7381979, 7.8027336], [6.7381788, 7.8027146], [6.7381644, 7.8026864], [6.7381568, 7.8026581], [6.7381573, 7.802627], [6.7381662, 7.8025982], [6.7381821, 7.8025741], [6.7382046, 7.802551], [6.7382617, 7.8025292], [6.7382945, 7.8025306], [6.7383221, 7.8025386], [6.7383615, 7.8025589], [6.7383729, 7.8025762], [6.738386, 7.8026044], [6.7383917, 7.8026332], [6.7383897, 7.8026642], [6.7383823, 7.8026931], [6.7383731, 7.8027074], [6.7383439, 7.8027402], [6.7383183, 7.8027545], [6.7382868, 7.802762], [6.7382552, 7.8027595], [6.7382264, 7.8027527]]}}, {"type": "Feature", "properties": {"name": "Aliyu Attah Road", "highway": "tertiary", "danger": ["july15"]}, "geometry": {"type": "LineString", "coordinates": [[6.7384197, 7.8022112], [6.73846, 7.802085], [6.7386101, 7.8016363], [6.7386896, 7.8014635], [6.7388047, 7.8011938], [6.7389353, 7.8008509], [6.7389415, 7.8008322], [6.7390016, 7.8006489], [6.7390211, 7.8005893], [6.7390581, 7.8004476], [6.7390643, 7.8003415], [6.7390684, 7.8002003], [6.7390524, 7.8000608], [6.7390259, 7.7996706], [6.7390149, 7.799358]]}}, {"type": "Feature", "properties": {"name": "Unnamed road", "highway": "primary", "danger": []}, "geometry": {"type": "LineString", "coordinates": [[6.7319592, 7.8036773], [6.7319395, 7.8036613], [6.7319241, 7.8036412], [6.7319147, 7.8036204], [6.7319101, 7.8035981], [6.7319104, 7.8035753], [6.7319156, 7.8035531], [6.7319256, 7.8035325], [6.7319367, 7.8035177], [6.7319617, 7.8034974], [6.7319984, 7.803484], [6.7320376, 7.8034847], [6.7320822, 7.8035014], [6.7320963, 7.803513], [6.7321088, 7.8035361], [6.7321187, 7.8035596], [6.7321226, 7.8035848], [6.7321202, 7.8036102], [6.7321118, 7.8036343], [6.7320978, 7.8036557], [6.7320793, 7.803673], [6.7320571, 7.8036855], [6.7320326, 7.8036923], [6.7320072, 7.8036932], [6.7319822, 7.8036881], [6.7319592, 7.8036773]]}}, {"type": "Feature", "properties": {"name": "Unnamed road", "highway": "primary", "danger": []}, "geometry": {"type": "LineString", "coordinates": [[6.7327403, 7.7980926], [6.7327081, 7.7982327], [6.7325136, 7.7987323], [6.7323902, 7.7990697], [6.7323393, 7.7992624], [6.7323285, 7.7993528], [6.7323138, 7.7995374], [6.7323071, 7.7997939], [6.7322846, 7.8003442], [6.7322803, 7.800431], [6.7322588, 7.8007107], [6.7322333, 7.8009352], [6.7321555, 7.8014362], [6.732071, 7.8019477]]}}, {"type": "Feature", "properties": {"name": "Unnamed road", "highway": "primary", "danger": ["july15"]}, "geometry": {"type": "LineString", "coordinates": [[6.7319367, 7.8035177], [6.7319437, 7.802911], [6.7319318, 7.802654], [6.7319477, 7.8022985], [6.7320054, 7.8019272], [6.7320389, 7.8017856], [6.7320979, 7.8014454], [6.7321703, 7.8009379], [6.7321971, 7.8007253], [6.7322139, 7.8004191], [6.7322147, 7.8003319], [6.73224, 7.7999999], [6.7322508, 7.799665], [6.7322588, 7.7994683], [6.7322696, 7.7993753], [6.7322896, 7.7992664], [6.7323259, 7.7991176], [6.7324305, 7.7987628], [6.7325994, 7.798323], [6.7326786, 7.7981609], [6.7327403, 7.7980926], [6.7327416, 7.7980187], [6.7327604, 7.797955], [6.73281, 7.7978673], [6.7329454, 7.7976666], [6.7331372, 7.7974408], [6.733443, 7.797082], [6.7340451, 7.7963778], [6.734245, 7.7961559], [6.735055, 7.7951939]]}}, {"type": "Feature", "properties": {"name": "Unnamed road", "highway": "trunk", "danger": []}, "geometry": {"type": "LineString", "coordinates": [[6.7263331, 7.7925129], [6.7264531, 7.7923943]]}}, {"type": "Feature", "properties": {"name": "Unnamed road", "highway": "trunk", "danger": []}, "geometry": {"type": "LineString", "coordinates": [[6.726626, 7.792356], [6.726592, 7.7924083], [6.7265597, 7.7924813], [6.7265118, 7.7925796]]}}, {"type": "Feature", "properties": {"name": "Unnamed road", "highway": "trunk", "danger": []}, "geometry": {"type": "LineString", "coordinates": [[6.7264531, 7.7923943], [6.7266514, 7.7922105]]}}, {"type": "Feature", "properties": {"name": "Unnamed road", "highway": "trunk", "danger": []}, "geometry": {"type": "LineString", "coordinates": [[6.7268176, 7.7928777], [6.7270665, 7.7929672]]}}, {"type": "Feature", "properties": {"name": "Unnamed road", "highway": "trunk", "danger": []}, "geometry": {"type": "LineString", "coordinates": [[6.7463801, 7.7392664], [6.7463055, 7.7393896], [6.7462398, 7.7395052], [6.7461044, 7.7397816], [6.7459595, 7.7401006], [6.7457291, 7.7407612], [6.7454663, 7.7413645], [6.7451503, 7.7420927], [6.7448146, 7.742919], [6.7446698, 7.7433169], [6.7445463, 7.7436562], [6.7444833, 7.7438755], [6.7443707, 7.7443865], [6.7442528, 7.7448958], [6.7440928, 7.7457697], [6.7440092, 7.7464643], [6.7439785, 7.7469448], [6.7439538, 7.7471719], [6.7438848, 7.7482811], [6.7438396, 7.7490223], [6.7437772, 7.7500058], [6.7437373, 7.7508783], [6.7437245, 7.7511072], [6.7436896, 7.7516706], [6.7436364, 7.7523741], [6.7435455, 7.7534246], [6.7434711, 7.7539022], [6.7434076, 7.754378], [6.7432839, 7.7550591], [6.7430741, 7.7558541], [6.7425827, 7.7575805], [6.7423061, 7.758552], [6.7421105, 7.7592205], [6.7419451, 7.7597951], [6.7418261, 7.7602511], [6.7417095, 7.7606456], [6.7416223, 7.760921], [6.7415392, 7.7612149], [6.7413623, 7.76191], [6.741233, 7.7625345], [6.7410956, 7.7632431], [6.7410212, 7.7636859], [6.7410032, 7.763845], [6.7409075, 7.7647484], [6.7408469, 7.7653906], [6.7408353, 7.7657497], [6.7408237, 7.7664452], [6.7408277, 7.7673487], [6.7408298, 7.7686082], [6.7408407, 7.768938], [6.7408582, 7.7697709], [6.7408789, 7.7708276], [6.7409126, 7.7720362], [6.7409366, 7.7728801], [6.74096, 7.7738407], [6.740959, 7.7740922], [6.7409915, 7.774778], [6.7409786, 7.7754984], [6.7409331, 7.7761315], [6.7408247, 7.7765379], [6.7406407, 7.7769211], [6.7405497, 7.7771303], [6.7404436, 7.7773742], [6.740414, 7.777427], [6.7402276, 7.7777608], [6.7399406, 7.7781488], [6.7395584, 7.7785501], [6.7395337, 7.7785807], [6.7393062, 7.778771], [6.7392701, 7.7788026], [6.7390019, 7.7790112], [6.7389281, 7.7790657], [6.7387792, 7.7791614], [6.7385325, 7.7792982], [6.7382374, 7.7794378], [6.7371391, 7.7798816], [6.7367247, 7.7800463], [6.7364316, 7.7801628], [6.7359965, 7.7803453], [6.7349394, 7.7808049], [6.7346701, 7.780922], [6.733903, 7.7812382], [6.7331734, 7.7814827], [6.7323514, 7.7817622], [6.7322085, 7.7818131], [6.7321435, 7.7818362], [6.7316338, 7.7820474], [6.7312007, 7.7822707], [6.7310545, 7.782365], [6.7309351, 7.7824646], [6.730679, 7.7827211], [6.7304403, 7.7830227], [6.730231, 7.7833642], [6.7300285, 7.783828], [6.7299481, 7.7840871], [6.7299088, 7.7842818], [6.7298569, 7.7845388], [6.7298407, 7.7849614], [6.7298461, 7.7851567], [6.7298971, 7.7856271]]}}, {"type": "Feature", "properties": {"name": "Aliyu Attah Road", "highway": "tertiary", "danger": ["july15"]}, "geometry": {"type": "LineString", "coordinates": [[6.7390837, 7.7991103], [6.7390494, 7.7992103], [6.7390149, 7.799358], [6.7389892, 7.7992477], [6.7389697, 7.7991395], [6.738969, 7.7990485], [6.7390033, 7.7989256], [6.7390461, 7.7988], [6.7390622, 7.798923], [6.7390783, 7.7990312], [6.7390837, 7.7991103]]}}, {"type": "Feature", "properties": {"name": "Kunama Road", "highway": "secondary", "danger": ["july15"]}, "geometry": {"type": "LineString", "coordinates": [[6.7322147, 7.8003319], [6.732244, 7.8003333], [6.7322846, 7.8003442], [6.7328048, 7.800376], [6.7330396, 7.8003877], [6.7332439, 7.8003895], [6.7334014, 7.8003737], [6.7335562, 7.8003319], [6.733943, 7.8001888], [6.7343722, 7.8000248], [6.7349923, 7.7998019], [6.7352132, 7.7997274], [6.7354697, 7.7996662], [6.7358821, 7.7996122], [6.7368062, 7.7994514], [6.7376554, 7.7993102], [6.7386753, 7.7991061], [6.738969, 7.7990485], [6.7390783, 7.7990312], [6.7394267, 7.7990214], [6.7410939, 7.7989098], [6.7413917, 7.7988932], [6.7424021, 7.7988446], [6.743844, 7.7987476], [6.7439142, 7.7987514]]}}, {"type": "Feature", "properties": {"name": "Aliyu Attah Road", "highway": "tertiary", "danger": ["july15"]}, "geometry": {"type": "LineString", "coordinates": [[6.7390461, 7.7988], [6.7390073, 7.7986698], [6.7389831, 7.7985277], [6.7389375, 7.7983655], [6.7388857, 7.7981746], [6.7388305, 7.7980072], [6.7386434, 7.7974395], [6.7384539, 7.7968789], [6.7383327, 7.7965346], [6.7383131, 7.7964661], [6.737984, 7.7953919], [6.7379598, 7.7953291]]}}, {"type": "Feature", "properties": {"name": "Ibb way", "highway": "trunk", "danger": ["july15"]}, "geometry": {"type": "LineString", "coordinates": [[6.7457121, 7.8069542], [6.7455411, 7.8065104], [6.745301, 7.8058793], [6.7450489, 7.8052149], [6.7449275, 7.8048535], [6.7447753, 7.8043154], [6.7446949, 7.8040776], [6.744601, 7.8038251], [6.7444915, 7.8036136], [6.7443663, 7.8033841], [6.7441866, 7.8030385], [6.7441316, 7.8028233], [6.7441303, 7.8025974], [6.7441464, 7.8023702], [6.7441919, 7.8020128], [6.7442161, 7.8017085], [6.7442228, 7.8014375], [6.744208, 7.8012382], [6.744192, 7.8010934], [6.7441236, 7.8007492], [6.7440203, 7.8003612], [6.7439807, 7.8000878], [6.7439774, 7.8000649], [6.7439674, 7.7999534], [6.7439371, 7.7996132], [6.7438661, 7.7988624], [6.7438573, 7.7988046], [6.743844, 7.7987476], [6.7438097, 7.7986379], [6.7437722, 7.7985104], [6.7437293, 7.7984067], [6.7436837, 7.7983137], [6.7435992, 7.7981729], [6.7435107, 7.7980506], [6.7433178, 7.7978019], [6.7432431, 7.7977025], [6.7430681, 7.7974607], [6.7427784, 7.7970793], [6.7425384, 7.7967771], [6.742501, 7.7967292], [6.7423151, 7.7964907], [6.7419966, 7.7961094], [6.7418316, 7.7959433], [6.7416472, 7.7957938], [6.7414957, 7.7956809], [6.7413696, 7.7956091], [6.7412502, 7.795556], [6.7410752, 7.7954955], [6.7408955, 7.7954583], [6.7406192, 7.7954224], [6.7403403, 7.7954092], [6.7399151, 7.7954052], [6.7390864, 7.7954078], [6.737984, 7.7953919], [6.7373389, 7.7954038], [6.736439, 7.7954278], [6.7358167, 7.7954371], [6.735696, 7.7954211], [6.7355914, 7.7953959], [6.7353849, 7.7953255], [6.7351295, 7.7952291], [6.735055, 7.7951939], [6.73465, 7.7950159], [6.7342785, 7.7948883], [6.7336361, 7.7947395], [6.7334326, 7.794721], [6.732232, 7.7944379], [6.7309526, 7.7941867], [6.7308584, 7.7941675], [6.7303956, 7.7940732], [6.7301962, 7.7940326], [6.7297663, 7.7939254], [6.7294685, 7.7938511], [6.7294022, 7.7938346], [6.7285843, 7.7935724], [6.7283535, 7.7935038], [6.7279941, 7.7934533], [6.7276266, 7.7933683], [6.7268799, 7.7931397]]}}, {"type": "Feature", "properties": {"name": "Unnamed road", "highway": "trunk", "danger": ["july15"]}, "geometry": {"type": "LineString", "coordinates": [[6.7270665, 7.7929672], [6.7276508, 7.7931251], [6.7280745, 7.7932699], [6.7284957, 7.7934387], [6.7294424, 7.7937323], [6.7301828, 7.7939452], [6.7302761, 7.7939687], [6.730416, 7.7939968], [6.7309669, 7.7941163], [6.7315708, 7.794228], [6.7322815, 7.7943643], [6.7328301, 7.7944751], [6.7334079, 7.7946122], [6.7336715, 7.7946682], [6.7342985, 7.7948191], [6.7346848, 7.794949], [6.7351053, 7.7951205], [6.7351503, 7.7951357], [6.7351894, 7.7951524], [6.7354206, 7.7952513], [6.7356099, 7.7953262], [6.7357495, 7.7953639], [6.7358637, 7.7953773], [6.736438, 7.7953559], [6.7373378, 7.795332], [6.7379598, 7.7953291], [6.7393129, 7.7953308], [6.7395705, 7.7953289], [6.7403445, 7.7953333], [6.7406455, 7.7953484], [6.7409142, 7.7953826], [6.7410985, 7.7954265], [6.7412773, 7.7954892], [6.7414026, 7.795545], [6.7415357, 7.7956208], [6.741692, 7.7957373], [6.7418806, 7.7958901], [6.7420504, 7.7960612], [6.7421366, 7.7961666], [6.7422985, 7.7963692], [6.7423717, 7.7964458], [6.7425956, 7.7967329], [6.7428359, 7.7970355], [6.7431266, 7.7974181], [6.7432331, 7.7975653], [6.7433015, 7.7976598], [6.7434879, 7.7979024], [6.743569, 7.7980079], [6.7436599, 7.7981335], [6.7437476, 7.7982796], [6.7438436, 7.798509], [6.7438815, 7.7985997], [6.743901, 7.7986778], [6.7439142, 7.7987514], [6.7439226, 7.7988067], [6.7439384, 7.7989409], [6.7440402, 7.7996071], [6.7440494, 7.8000567], [6.7440918, 7.8003489], [6.744188, 7.8007403], [6.7442585, 7.8010859], [6.7442724, 7.8012435], [6.7442861, 7.8014293], [6.7442897, 7.801699], [6.7442655, 7.8020149], [6.7442228, 7.8023762], [6.7442068, 7.8025995], [6.7442095, 7.8028096], [6.7442526, 7.8030033], [6.7444217, 7.8033459], [6.7445642, 7.8035875], [6.7446676, 7.8037964], [6.7447171, 7.8039295], [6.7447633, 7.8040537], [6.7448447, 7.8042943], [6.7449969, 7.8048324], [6.7451079, 7.8051922], [6.745293, 7.8056402], [6.7453689, 7.805854], [6.7456091, 7.8064853], [6.7457724, 7.806907]]}}, {"type": "Feature", "properties": {"name": "Unnamed road", "highway": "trunk", "danger": []}, "geometry": {"type": "LineString", "coordinates": [[6.7266647, 7.7928488], [6.7268176, 7.7928777]]}}, {"type": "Feature", "properties": {"name": "Unnamed road", "highway": "trunk", "danger": []}, "geometry": {"type": "LineString", "coordinates": [[6.7268799, 7.7931397], [6.7265968, 7.7930895]]}}, {"type": "Feature", "properties": {"name": "Unnamed road", "highway": "primary", "danger": ["july15"]}, "geometry": {"type": "LineString", "coordinates": [[6.7351894, 7.7951524], [6.7351295, 7.7952291]]}}, {"type": "Feature", "properties": {"name": "Unnamed road", "highway": "primary", "danger": ["july15"]}, "geometry": {"type": "LineString", "coordinates": [[6.735055, 7.7951939], [6.7351053, 7.7951205]]}}, {"type": "Feature", "properties": {"name": "Unnamed road", "highway": "primary", "danger": []}, "geometry": {"type": "LineString", "coordinates": [[6.6941057, 7.8057777], [6.6951536, 7.805017], [6.6956053, 7.8047408], [6.6957765, 7.8045919], [6.6963889, 7.8041824], [6.6972256, 7.8036023], [6.697322, 7.8035427], [6.6977836, 7.8032498], [6.6983124, 7.8029674], [6.6989546, 7.8026245], [6.6997589, 7.8021868], [6.6999488, 7.8020949], [6.7008875, 7.8016404], [6.7025386, 7.8008072], [6.7036094, 7.8002992], [6.7047124, 7.7997131], [6.705448, 7.7993262], [6.7061656, 7.798865], [6.7065946, 7.7985191], [6.7071023, 7.7981035], [6.7076943, 7.7975323], [6.7083858, 7.7968455], [6.7087018, 7.796516], [6.7092513, 7.7959344], [6.7095824, 7.7955371], [6.7096319, 7.7954777], [6.7101158, 7.7947435], [6.7103893, 7.7943342], [6.7105591, 7.794148], [6.7107265, 7.7940121], [6.7109363, 7.7938914], [6.7114826, 7.7936767], [6.7122872, 7.7934941], [6.7131911, 7.793292], [6.7133116, 7.7932728], [6.7135942, 7.7932098], [6.714033, 7.7930975], [6.7143081, 7.7930082], [6.7145388, 7.7929298], [6.7148942, 7.7928328], [6.7151235, 7.7927504]]}}, {"type": "Feature", "properties": {"name": "Unnamed road", "highway": "trunk", "danger": []}, "geometry": {"type": "LineString", "coordinates": [[6.7299092, 7.7866209], [6.7297723, 7.7856417]]}}, {"type": "Feature", "properties": {"name": "Unnamed road", "highway": "trunk", "danger": []}, "geometry": {"type": "LineString", "coordinates": [[6.7298971, 7.7856271], [6.7299333, 7.7858463], [6.7299977, 7.7862821], [6.730046, 7.7865905]]}}, {"type": "Feature", "properties": {"name": "Unnamed road", "highway": "trunk", "danger": []}, "geometry": {"type": "LineString", "coordinates": [[6.7266514, 7.7922105], [6.7267254, 7.7921565], [6.727062, 7.7918854], [6.7280692, 7.791027], [6.7282751, 7.7908458], [6.7287062, 7.7904663], [6.728965, 7.7902032], [6.7291032, 7.7900385], [6.7292346, 7.7898658], [6.7293647, 7.7896757], [6.7295565, 7.7893622], [6.7297442, 7.7889821], [6.7297697, 7.7889123], [6.729826, 7.7887576], [6.7299092, 7.7884453], [6.7299521, 7.7882474], [6.729995, 7.7880494], [6.7300218, 7.7877756], [6.7300326, 7.7875418], [6.7299896, 7.7871193], [6.7299092, 7.7866209]]}}, {"type": "Feature", "properties": {"name": "Unnamed road", "highway": "trunk", "danger": []}, "geometry": {"type": "LineString", "coordinates": [[6.730046, 7.7865905], [6.7300889, 7.7868934], [6.730117, 7.7871419], [6.7301198, 7.7875279], [6.7301048, 7.7877572], [6.7300735, 7.7880464], [6.7299907, 7.7884509], [6.7299814, 7.7885008], [6.7299038, 7.788767], [6.7298106, 7.7890116], [6.7296284, 7.7893875], [6.7294613, 7.7896727], [6.7293053, 7.7898998], [6.7291775, 7.7900695], [6.7290303, 7.790237], [6.7287579, 7.7905136], [6.7281124, 7.7910813], [6.7276803, 7.7914525], [6.7272424, 7.7918287], [6.7270927, 7.7919574], [6.7267079, 7.7922782], [6.726626, 7.792356]]}}, {"type": "Feature", "properties": {"name": "Unnamed road", "highway": "primary", "danger": []}, "geometry": {"type": "LineString", "coordinates": [[6.725837, 7.7927803], [6.7252877, 7.7926388], [6.7248808, 7.7925452], [6.7245939, 7.792495], [6.7243241, 7.7924401], [6.7237931, 7.7923292], [6.7234742, 7.7922627], [6.7232774, 7.7922216], [6.7227034, 7.7920787], [6.7224563, 7.7920231], [6.7221515, 7.7919545], [6.721705, 7.7918721], [6.7210881, 7.7918043], [6.7206494, 7.7917398], [6.7204699, 7.7917185], [6.7202277, 7.7916944], [6.7200412, 7.7916759], [6.7197127, 7.7916745], [6.7194753, 7.7917016], [6.7192319, 7.7917169], [6.7191043, 7.7917354], [6.7188057, 7.7917786], [6.7186059, 7.7917966], [6.7184501, 7.7918272], [6.718129, 7.7919013], [6.7177768, 7.7919905], [6.7171741, 7.7921365], [6.7165491, 7.7923491], [6.7158625, 7.7926029], [6.715609, 7.7926826], [6.7149386, 7.7929011]]}}, {"type": "Feature", "properties": {"name": "Unnamed road", "highway": "primary", "danger": []}, "geometry": {"type": "LineString", "coordinates": [[6.7151235, 7.7927504], [6.7156251, 7.7925803], [6.7160502, 7.7924475], [6.7165196, 7.7922721], [6.7170614, 7.7920754], [6.7177534, 7.7918721], [6.7180458, 7.7917911], [6.7183422, 7.7917339], [6.7185393, 7.7916967], [6.7187431, 7.7916595], [6.7190221, 7.7916024], [6.7192622, 7.7915692], [6.7194217, 7.7915532], [6.7196242, 7.7915639], [6.7197342, 7.7915652], [6.7200427, 7.7915838], [6.7204919, 7.791629], [6.7207897, 7.7916542], [6.721141, 7.7917153], [6.7217056, 7.7918017], [6.7222059, 7.7918987], [6.7224991, 7.7919592], [6.7227584, 7.7920169], [6.7233002, 7.7921179], [6.7236342, 7.792195], [6.7238823, 7.7922388], [6.7243074, 7.7923319], [6.7245748, 7.7923988], [6.7248854, 7.7924767], [6.72534, 7.7925684], [6.725847, 7.7927092]]}}, {"type": "Feature", "properties": {"name": "Unnamed road", "highway": "primary", "danger": []}, "geometry": {"type": "LineString", "coordinates": [[6.7149386, 7.7929011], [6.7144984, 7.7930481]]}}, {"type": "Feature", "properties": {"name": "Unnamed road", "highway": "trunk", "danger": []}, "geometry": {"type": "LineString", "coordinates": [[6.7266542, 7.7927859], [6.7266647, 7.7928488], [6.726664, 7.7929125], [6.7266522, 7.7929751], [6.7266295, 7.7930347], [6.7265968, 7.7930895], [6.7265549, 7.7931379], [6.7265052, 7.7931783], [6.7264492, 7.7932095], [6.7263885, 7.7932307], [6.7263251, 7.793241], [6.7262608, 7.7932403], [6.7261976, 7.7932286], [6.7261374, 7.7932061], [6.7260821, 7.7931737], [6.7260333, 7.7931322], [6.7259925, 7.793083], [6.7259609, 7.7930275], [6.7259396, 7.7929674]]}}, {"type": "Feature", "properties": {"name": "Unnamed road", "highway": "primary", "danger": []}, "geometry": {"type": "LineString", "coordinates": [[6.7267469, 7.7930281], [6.725837, 7.7927803]]}}, {"type": "Feature", "properties": {"name": "Unnamed road", "highway": "primary", "danger": []}, "geometry": {"type": "LineString", "coordinates": [[6.726773, 7.792961], [6.7281007, 7.793357], [6.7282864, 7.7934088], [6.7284957, 7.7934387]]}}, {"type": "Feature", "properties": {"name": "Unnamed road", "highway": "primary", "danger": []}, "geometry": {"type": "LineString", "coordinates": [[6.725847, 7.7927092], [6.726773, 7.792961]]}}, {"type": "Feature", "properties": {"name": "Unnamed road", "highway": "primary", "danger": []}, "geometry": {"type": "LineString", "coordinates": [[6.7283535, 7.7935038], [6.7267469, 7.7930281]]}}, {"type": "Feature", "properties": {"name": "Unnamed road", "highway": "trunk", "danger": []}, "geometry": {"type": "LineString", "coordinates": [[6.7259396, 7.7929674], [6.7259291, 7.7929045], [6.7259298, 7.7928408], [6.7259417, 7.7927782], [6.7259643, 7.7927186], [6.7259971, 7.7926638], [6.7260389, 7.7926154], [6.7260886, 7.792575], [6.7261447, 7.7925437], [6.7262053, 7.7925226], [6.7262688, 7.7925122], [6.7263331, 7.7925129], [6.7263963, 7.7925247], [6.7264564, 7.7925471], [6.7265118, 7.7925796], [6.7265606, 7.792621], [6.7266014, 7.7926703], [6.7266329, 7.7927258], [6.7266542, 7.7927859]]}}, {"type": "Feature", "properties": {"name": "Unnamed road", "highway": "primary", "danger": ["july15"]}, "geometry": {"type": "LineString", "coordinates": [[6.7351295, 7.7952291], [6.7345044, 7.795965], [6.7340894, 7.7964309], [6.7334698, 7.7971577], [6.7330997, 7.7975949], [6.7329723, 7.7977503], [6.7328703, 7.7979138], [6.7328274, 7.7979895], [6.7327832, 7.7980533], [6.7327403, 7.7980926]]}}, {"type": "Feature", "properties": {"name": "Unnamed road", "highway": "primary", "danger": []}, "geometry": {"type": "LineString", "coordinates": [[6.732071, 7.8019477], [6.7320306, 7.8023131], [6.7320228, 7.8024885], [6.7320242, 7.8027055], [6.7320362, 7.8028951], [6.7320822, 7.8035014]]}}]}